{
  "type": "FeatureCollection",
  "features": [
    {
      "type": "Feature",
      "properties": {
        "norad_id": 34079,
        "name": "IRIDIUM 33 DEB",
        "group": "iridium-33-debris",
        "lat": 33.135553031115094,
        "lon": 6.632885637091558,
        "alt_km": 613.9967859704038,
        "timestamp": "2025-12-22T09:53:37.785436+00:00",
        "meta_object_name": "IRIDIUM 33 DEB",
        "meta_object_id": "1997-051CN",
        "meta_epoch": "2025-12-21T13:15:26.349984",
        "meta_mean_motion": 14.83733705,
        "meta_eccentricity": 0.000457,
        "meta_inclination": 86.3769,
        "meta_ra_of_asc_node": 4.6535,
        "meta_arg_of_pericenter": 336.3629,
        "meta_mean_anomaly": 147.0439,
        "meta_ephemeris_type": 0,
        "meta_classification_type": "U",
        "meta_norad_cat_id": 34079,
        "meta_element_set_no": 999,
        "meta_rev_at_epoch": 89108,
        "meta_bstar": 0.0012935,
        "meta_mean_motion_dot": 0.00010729,
        "meta_mean_motion_ddot": 0,
        "tle_line1": "1 34079U 97051CN  25355.55238831  .00010729  00000+0  12935-2 0  9990",
        "tle_line2": "2 34079  86.3769   4.6535 0004570 336.3629 147.0439 14.83733705891080"
      },
      "geometry": {
        "type": "Point",
        "coordinates": [
          6.632885637091558,
          33.135553031115094
        ]
      }
    },
    {
      "type": "Feature",
      "properties": {
        "norad_id": 34088,
        "name": "IRIDIUM 33 DEB",
        "group": "iridium-33-debris",
        "lat": 40.72248278045832,
        "lon": 29.39887406170762,
        "alt_km": 590.5320994256499,
        "timestamp": "2025-12-22T09:53:37.785446+00:00",
        "meta_object_name": "IRIDIUM 33 DEB",
        "meta_object_id": "1997-051CX",
        "meta_epoch": "2025-12-21T19:59:46.870368",
        "meta_mean_motion": 14.91753084,
        "meta_eccentricity": 0.0006708,
        "meta_inclination": 86.3838,
        "meta_ra_of_asc_node": 26.5444,
        "meta_arg_of_pericenter": 148.1548,
        "meta_mean_anomaly": 25.1344,
        "meta_ephemeris_type": 0,
        "meta_classification_type": "U",
        "meta_norad_cat_id": 34088,
        "meta_element_set_no": 999,
        "meta_rev_at_epoch": 88877,
        "meta_bstar": 0.0018881,
        "meta_mean_motion_dot": 0.00019078,
        "meta_mean_motion_ddot": 0,
        "tle_line1": "1 34088U 97051CX  25355.83318137  .00019078  00000+0  18881-2 0  9991",
        "tle_line2": "2 34088  86.3838  26.5444 0006708 148.1548  25.1344 14.91753084888777"
      },
      "geometry": {
        "type": "Point",
        "coordinates": [
          29.39887406170762,
          40.72248278045832
        ]
      }
    },
    {
      "type": "Feature",
      "properties": {
        "norad_id": 34091,
        "name": "IRIDIUM 33 DEB",
        "group": "iridium-33-debris",
        "lat": -78.22290587412573,
        "lon": -99.7260708187963,
        "alt_km": 604.9584220530478,
        "timestamp": "2025-12-22T09:53:37.785456+00:00",
        "meta_object_name": "IRIDIUM 33 DEB",
        "meta_object_id": "1997-051DA",
        "meta_epoch": "2025-12-22T03:52:05.601216",
        "meta_mean_motion": 14.82461655,
        "meta_eccentricity": 0.0034242,
        "meta_inclination": 86.3415,
        "meta_ra_of_asc_node": 62.5176,
        "meta_arg_of_pericenter": 259.4997,
        "meta_mean_anomaly": 100.2366,
        "meta_ephemeris_type": 0,
        "meta_classification_type": "U",
        "meta_norad_cat_id": 34091,
        "meta_element_set_no": 999,
        "meta_rev_at_epoch": 88006,
        "meta_bstar": 0.0054457,
        "meta_mean_motion_dot": 0.00044372,
        "meta_mean_motion_ddot": 0,
        "tle_line1": "1 34091U 97051DA  25356.16117594  .00044372  00000+0  54457-2 0  9990",
        "tle_line2": "2 34091  86.3415  62.5176 0034242 259.4997 100.2366 14.82461655880065"
      },
      "geometry": {
        "type": "Point",
        "coordinates": [
          -99.7260708187963,
          -78.22290587412573
        ]
      }
    },
    {
      "type": "Feature",
      "properties": {
        "norad_id": 34097,
        "name": "IRIDIUM 33 DEB",
        "group": "iridium-33-debris",
        "lat": -59.80735790741541,
        "lon": -9.421465854294887,
        "alt_km": 732.3121289321089,
        "timestamp": "2025-12-22T09:53:37.785466+00:00",
        "meta_object_name": "IRIDIUM 33 DEB",
        "meta_object_id": "1997-051DG",
        "meta_epoch": "2025-12-21T17:25:54.708096",
        "meta_mean_motion": 14.34842899,
        "meta_eccentricity": 0.0081692,
        "meta_inclination": 86.1999,
        "meta_ra_of_asc_node": 357.4405,
        "meta_arg_of_pericenter": 332.7773,
        "meta_mean_anomaly": 26.9151,
        "meta_ephemeris_type": 0,
        "meta_classification_type": "U",
        "meta_norad_cat_id": 34097,
        "meta_element_set_no": 999,
        "meta_rev_at_epoch": 87248,
        "meta_bstar": 0.0011553,
        "meta_mean_motion_dot": 3.423e-05,
        "meta_mean_motion_ddot": 0,
        "tle_line1": "1 34097U 97051DG  25355.72632764  .00003423  00000+0  11553-2 0  9990",
        "tle_line2": "2 34097  86.1999 357.4405 0081692 332.7773  26.9151 14.34842899872488"
      },
      "geometry": {
        "type": "Point",
        "coordinates": [
          -9.421465854294887,
          -59.80735790741541
        ]
      }
    },
    {
      "type": "Feature",
      "properties": {
        "norad_id": 34145,
        "name": "IRIDIUM 33 DEB",
        "group": "iridium-33-debris",
        "lat": 68.35445248357787,
        "lon": 138.60843964503928,
        "alt_km": 717.6011728770163,
        "timestamp": "2025-12-22T09:53:37.785476+00:00",
        "meta_object_name": "IRIDIUM 33 DEB",
        "meta_object_id": "1997-051DY",
        "meta_epoch": "2025-12-22T04:23:22.179840",
        "meta_mean_motion": 14.42352181,
        "meta_eccentricity": 0.0055652,
        "meta_inclination": 86.2122,
        "meta_ra_of_asc_node": 328.3204,
        "meta_arg_of_pericenter": 63.8456,
        "meta_mean_anomaly": 296.8453,
        "meta_ephemeris_type": 0,
        "meta_classification_type": "U",
        "meta_norad_cat_id": 34145,
        "meta_element_set_no": 999,
        "meta_rev_at_epoch": 87774,
        "meta_bstar": 0.0011264,
        "meta_mean_motion_dot": 3.81e-05,
        "meta_mean_motion_ddot": 0,
        "tle_line1": "1 34145U 97051DY  25356.18289560  .00003810  00000+0  11264-2 0  9996",
        "tle_line2": "2 34145  86.2122 328.3204 0055652  63.8456 296.8453 14.42352181877748"
      },
      "geometry": {
        "type": "Point",
        "coordinates": [
          138.60843964503928,
          68.35445248357787
        ]
      }
    },
    {
      "type": "Feature",
      "properties": {
        "norad_id": 34146,
        "name": "IRIDIUM 33 DEB",
        "group": "iridium-33-debris",
        "lat": -16.539594298059612,
        "lon": -15.578915532084217,
        "alt_km": 750.5533681711267,
        "timestamp": "2025-12-22T09:53:37.785487+00:00",
        "meta_object_name": "IRIDIUM 33 DEB",
        "meta_object_id": "1997-051DZ",
        "meta_epoch": "2025-12-21T11:20:47.029056",
        "meta_mean_motion": 14.49100968,
        "meta_eccentricity": 0.00263815,
        "meta_inclination": 86.2834,
        "meta_ra_of_asc_node": 345.942,
        "meta_arg_of_pericenter": 191.3369,
        "meta_mean_anomaly": 294.1823,
        "meta_ephemeris_type": 0,
        "meta_classification_type": "U",
        "meta_norad_cat_id": 34146,
        "meta_element_set_no": 999,
        "meta_rev_at_epoch": 88233,
        "meta_bstar": 0.00067306657,
        "meta_mean_motion_dot": 2.588e-05,
        "meta_mean_motion_ddot": 0,
        "tle_line1": "1 34146U 97051DZ  25355.47276654  .00002588  00000+0  67307-3 0  9999",
        "tle_line2": "2 34146  86.2834 345.9420 0026381 191.3369 294.1823 14.49100968882335"
      },
      "geometry": {
        "type": "Point",
        "coordinates": [
          -15.578915532084217,
          -16.539594298059612
        ]
      }
    },
    {
      "type": "Feature",
      "properties": {
        "norad_id": 34159,
        "name": "IRIDIUM 33 DEB",
        "group": "iridium-33-debris",
        "lat": 50.46765400713546,
        "lon": 48.553239620197616,
        "alt_km": 775.9947329915321,
        "timestamp": "2025-12-22T09:53:37.785497+00:00",
        "meta_object_name": "IRIDIUM 33 DEB",
        "meta_object_id": "1997-051EN",
        "meta_epoch": "2025-12-22T02:58:50.860128",
        "meta_mean_motion": 14.38515401,
        "meta_eccentricity": 0.0026075,
        "meta_inclination": 86.3498,
        "meta_ra_of_asc_node": 44.2398,
        "meta_arg_of_pericenter": 254.6532,
        "meta_mean_anomaly": 105.1784,
        "meta_ephemeris_type": 0,
        "meta_classification_type": "U",
        "meta_norad_cat_id": 34159,
        "meta_element_set_no": 999,
        "meta_rev_at_epoch": 88094,
        "meta_bstar": 0.00034381,
        "meta_mean_motion_dot": 1.073e-05,
        "meta_mean_motion_ddot": 0,
        "tle_line1": "1 34159U 97051EN  25356.12419977  .00001073  00000+0  34381-3 0  9997",
        "tle_line2": "2 34159  86.3498  44.2398 0026075 254.6532 105.1784 14.38515401880946"
      },
      "geometry": {
        "type": "Point",
        "coordinates": [
          48.553239620197616,
          50.46765400713546
        ]
      }
    }
  ]
}